[{"OBJECT_NAME":"TEVEL2-5","OBJECT_ID":"2025-052E","EPOCH":"2026-03-09T23:11:54.246048","MEAN_MOTION":15.30817434,"ECCENTRICITY":0.00047002,"INCLINATION":97.4013,"RA_OF_ASC_NODE":325.3677,"ARG_OF_PERICENTER":95.3936,"MEAN_ANOMALY":264.7842,"EPHEMERIS_TYPE":0,"CLASSIFICATION_TYPE":"U","NORAD_CAT_ID":63214,"ELEMENT_SET_NO":999,"REV_AT_EPOCH":5491,"BSTAR":0.00071764727,"MEAN_MOTION_DOT":0.00021339,"MEAN_MOTION_DDOT":0},{"OBJECT_NAME":"STARLINK-34999","OBJECT_ID":"2025-176AA","EPOCH":"2026-03-09T11:22:30.515520","MEAN_MOTION":15.3020511,"ECCENTRICITY":0.00013076,"INCLINATION":53.1599,"RA_OF_ASC_NODE":153.9922,"ARG_OF_PERICENTER":105.6394,"MEAN_ANOMALY":254.4751,"EPHEMERIS_TYPE":0,"CLASSIFICATION_TYPE":"U","NORAD_CAT_ID":65222,"ELEMENT_SET_NO":999,"REV_AT_EPOCH":3308,"BSTAR":0.00053500847,"MEAN_MOTION_DOT":0.00015522,"MEAN_MOTION_DDOT":0}]
